start=new Date('2023-03-01T00:00:00.000Z').valueOf();
sats=[{"BSTAR":"-0.00004934700000","EPHEMERIS_TYPE":"0","FILE":"3847856","MEAN_ANOMALY":"283.4491","ECCENTRICITY":"0.00013570","PERIAPSIS":"538.806","CLASSIFICATION_TYPE":"U","APOAPSIS":"540.683","MEAN_MOTION_DDOT":"0.0000000000000","ARG_OF_PERICENTER":"76.6652","RCS_SIZE":"LARGE","CENTER_NAME":"EARTH","ELEMENT_SET_NO":"999","TLE_LINE2":"2 52332  53.2177 128.6829 0001357  76.6652 283.4491 15.08840302 48853","SEMIMAJOR_AXIS":"6917.879","MEAN_MOTION":"15.08840302","TIME_SYSTEM":"UTC","MEAN_MOTION_DOT":"-0.00001073","LAUNCH_DATE":"2022-04-29","OBJECT_NAME":"STARLINK-3831","DECAY_DATE":null,"REV_AT_EPOCH":"4885","TLE_LINE1":"1 52332U 22045B   23059.90664550 -.00001073  00000-0 -49347-4 0  9996","RA_OF_ASC_NODE":"128.6829","MEAN_ELEMENT_THEORY":"SGP4","REF_FRAME":"TEME","INCLINATION":"53.2177","OBJECT_TYPE":"PAYLOAD","GP_ID":"227276011","SITE":"AFETR","PERIOD":"95.438","COUNTRY_CODE":"US","OBJECT_ID":"2022-045B","NORAD_CAT_ID":"52332","EPOCH":"2023-02-28T21:45:34.171200"},{"BSTAR":"-0.00120190000000","EPHEMERIS_TYPE":"0","FILE":"3847856","MEAN_ANOMALY":"208.9191","ECCENTRICITY":"0.00008980","PERIAPSIS":"539.221","CLASSIFICATION_TYPE":"U","APOAPSIS":"540.463","MEAN_MOTION_DDOT":"0.0000000000000","ARG_OF_PERICENTER":"151.1851","CENTER_NAME":"EARTH","RCS_SIZE":"LARGE","ELEMENT_SET_NO":"999","TLE_LINE2":"2 52333  53.2160 128.7027 0000898 151.1851 208.9191 15.08808396 48841","SEMIMAJOR_AXIS":"6917.977","MEAN_MOTION":"15.08808396","TIME_SYSTEM":"UTC","MEAN_MOTION_DOT":"-0.00019348","LAUNCH_DATE":"2022-04-29","OBJECT_NAME":"STARLINK-3847","DECAY_DATE":null,"REV_AT_EPOCH":"4884","TLE_LINE1":"1 52333U 22045C   23059.90297059 -.00019348  00000-0 -12019-2 0  9991","RA_OF_ASC_NODE":"128.7027","MEAN_ELEMENT_THEORY":"SGP4","REF_FRAME":"TEME","INCLINATION":"53.2160","OBJECT_TYPE":"PAYLOAD","GP_ID":"227276023","SITE":"AFETR","PERIOD":"95.440","COUNTRY_CODE":"US","OBJECT_ID":"2022-045C","NORAD_CAT_ID":"52333","EPOCH":"2023-02-28T21:40:16.658976"},{"EPHEMERIS_TYPE":"0","BSTAR":"-0.00015360000000","MEAN_ANOMALY":"283.8773","FILE":"3847856","ECCENTRICITY":"0.00011320","CLASSIFICATION_TYPE":"U","PERIAPSIS":"538.973","ARG_OF_PERICENTER":"76.2345","MEAN_MOTION_DDOT":"0.0000000000000","APOAPSIS":"540.539","CENTER_NAME":"EARTH","RCS_SIZE":"LARGE","TLE_LINE2":"2 52334  53.2138 128.7529 0001132  76.2345 283.8773 15.08836430 48849","ELEMENT_SET_NO":"999","MEAN_MOTION":"15.08836430","SEMIMAJOR_AXIS":"6917.891","LAUNCH_DATE":"2022-04-29","MEAN_MOTION_DOT":"-0.00002731","TIME_SYSTEM":"UTC","TLE_LINE1":"1 52334U 22045D   23059.89192658 -.00002731  00000-0 -15360-3 0  9990","DECAY_DATE":null,"OBJECT_NAME":"STARLINK-3880","REV_AT_EPOCH":"4884","INCLINATION":"53.2138","MEAN_ELEMENT_THEORY":"SGP4","REF_FRAME":"TEME","RA_OF_ASC_NODE":"128.7529","PERIOD":"95.438","SITE":"AFETR","GP_ID":"227275515","OBJECT_TYPE":"PAYLOAD","NORAD_CAT_ID":"52334","OBJECT_ID":"2022-045D","COUNTRY_CODE":"US","EPOCH":"2023-02-28T21:24:22.456512"},{"RCS_SIZE":"LARGE","CENTER_NAME":"EARTH","ARG_OF_PERICENTER":"70.2388","MEAN_MOTION_DDOT":"0.0000000000000","APOAPSIS":"541.306","CLASSIFICATION_TYPE":"U","PERIAPSIS":"538.319","ECCENTRICITY":"0.00021590","MEAN_ANOMALY":"289.8837","FILE":"3847856","EPHEMERIS_TYPE":"0","BSTAR":"-0.00060970000000","EPOCH":"2023-02-28T21:19:05.003904","NORAD_CAT_ID":"52335","OBJECT_ID":"2022-045E","COUNTRY_CODE":"US","PERIOD":"95.439","SITE":"AFETR","GP_ID":"227275520","OBJECT_TYPE":"PAYLOAD","INCLINATION":"53.2149","REF_FRAME":"TEME","MEAN_ELEMENT_THEORY":"SGP4","RA_OF_ASC_NODE":"128.7681","TLE_LINE1":"1 52335U 22045E   23059.88825236 -.00009973  00000-0 -60970-3 0  9997","OBJECT_NAME":"STARLINK-3814","DECAY_DATE":null,"REV_AT_EPOCH":"4885","LAUNCH_DATE":"2022-04-29","TIME_SYSTEM":"UTC","MEAN_MOTION_DOT":"-0.00009973","MEAN_MOTION":"15.08818027","SEMIMAJOR_AXIS":"6917.948","TLE_LINE2":"2 52335  53.2149 128.7681 0002159  70.2388 289.8837 15.08818027 48852","ELEMENT_SET_NO":"999"},{"CLASSIFICATION_TYPE":"U","PERIAPSIS":"538.978","ARG_OF_PERICENTER":"83.4073","MEAN_MOTION_DDOT":"0.0000000000000","APOAPSIS":"540.714","RCS_SIZE":"LARGE","CENTER_NAME":"EARTH","EPHEMERIS_TYPE":"0","BSTAR":"-0.00049545000000","MEAN_ANOMALY":"276.7062","FILE":"3847656","ECCENTRICITY":"0.00012550","INCLINATION":"53.2127","MEAN_ELEMENT_THEORY":"SGP4","REF_FRAME":"TEME","RA_OF_ASC_NODE":"128.7999","PERIOD":"95.440","SITE":"AFETR","GP_ID":"227267619","OBJECT_TYPE":"PAYLOAD","NORAD_CAT_ID":"52336","OBJECT_ID":"2022-045F","COUNTRY_CODE":"US","EPOCH":"2023-02-28T21:09:52.439616","TLE_LINE2":"2 52336  53.2127 128.7999 0001255  83.4073 276.7062 15.08807107 48856","ELEMENT_SET_NO":"999","MEAN_MOTION":"15.08807107","SEMIMAJOR_AXIS":"6917.981","LAUNCH_DATE":"2022-04-29","MEAN_MOTION_DOT":"-0.00008157","TIME_SYSTEM":"UTC","TLE_LINE1":"1 52336U 22045F   23059.88185694 -.00008157  00000-0 -49545-3 0  9993","DECAY_DATE":null,"REV_AT_EPOCH":"4885","OBJECT_NAME":"STARLINK-3823"},{"TIME_SYSTEM":"UTC","MEAN_MOTION_DOT":"-0.00003110","LAUNCH_DATE":"2022-04-29","TLE_LINE1":"1 52337U 22045G   23059.89930931 -.00003110  00000-0 -17744-3 0  9997","DECAY_DATE":null,"REV_AT_EPOCH":"4885","OBJECT_NAME":"STARLINK-3797","TLE_LINE2":"2 52337  53.2191 128.7149 0001837  78.3537 281.7662 15.08828659 48856","ELEMENT_SET_NO":"999","MEAN_MOTION":"15.08828659","SEMIMAJOR_AXIS":"6917.915","NORAD_CAT_ID":"52337","COUNTRY_CODE":"US","OBJECT_ID":"2022-045G","EPOCH":"2023-02-28T21:35:00.324384","MEAN_ELEMENT_THEORY":"SGP4","REF_FRAME":"TEME","INCLINATION":"53.2191","RA_OF_ASC_NODE":"128.7149","SITE":"AFETR","PERIOD":"95.438","OBJECT_TYPE":"PAYLOAD","GP_ID":"227275525","MEAN_ANOMALY":"281.7662","FILE":"3847856","ECCENTRICITY":"0.00018370","EPHEMERIS_TYPE":"0","BSTAR":"-0.00017744000000","CENTER_NAME":"EARTH","RCS_SIZE":"LARGE","CLASSIFICATION_TYPE":"U","PERIAPSIS":"538.509","MEAN_MOTION_DDOT":"0.0000000000000","ARG_OF_PERICENTER":"78.3537","APOAPSIS":"541.051"},{"SEMIMAJOR_AXIS":"6907.842","MEAN_MOTION":"15.12129972","ELEMENT_SET_NO":"999","TLE_LINE2":"2 52338  53.2150 128.2986 0003289  58.3303 301.8011 15.12129972 48868","DECAY_DATE":null,"OBJECT_NAME":"STARLINK-3815","REV_AT_EPOCH":"4886","TLE_LINE1":"1 52338U 22045H   23059.89207990  .00041889  00000-0  24062-2 0  9993","LAUNCH_DATE":"2022-04-29","TIME_SYSTEM":"UTC","MEAN_MOTION_DOT":"0.00041889","OBJECT_TYPE":"PAYLOAD","GP_ID":"227268121","PERIOD":"95.230","SITE":"AFETR","RA_OF_ASC_NODE":"128.2986","INCLINATION":"53.2150","REF_FRAME":"TEME","MEAN_ELEMENT_THEORY":"SGP4","EPOCH":"2023-02-28T21:24:35.703360","OBJECT_ID":"2022-045H","COUNTRY_CODE":"US","NORAD_CAT_ID":"52338","BSTAR":"0.00240620000000","EPHEMERIS_TYPE":"0","ECCENTRICITY":"0.00032890","FILE":"3847656","MEAN_ANOMALY":"301.8011","APOAPSIS":"531.979","ARG_OF_PERICENTER":"58.3303","MEAN_MOTION_DDOT":"0.0000000000000","PERIAPSIS":"527.436","CLASSIFICATION_TYPE":"U","RCS_SIZE":"LARGE","CENTER_NAME":"EARTH"},{"DECAY_DATE":null,"OBJECT_NAME":"STARLINK-3792","REV_AT_EPOCH":"4879","TLE_LINE1":"1 52339U 22045J   23059.47705068  .00028735  00000-0  18162-2 0  9996","LAUNCH_DATE":"2022-04-29","TIME_SYSTEM":"UTC","MEAN_MOTION_DOT":"0.00028735","SEMIMAJOR_AXIS":"6917.881","MEAN_MOTION":"15.08839943","ELEMENT_SET_NO":"999","TLE_LINE2":"2 52339  53.2150 130.6128 0001730 126.6231 233.4921 15.08839943 48795","EPOCH":"2023-02-28T11:26:57.178752","OBJECT_ID":"2022-045J","COUNTRY_CODE":"US","NORAD_CAT_ID":"52339","OBJECT_TYPE":"PAYLOAD","GP_ID":"227275562","PERIOD":"95.438","SITE":"AFETR","RA_OF_ASC_NODE":"130.6128","INCLINATION":"53.2150","MEAN_ELEMENT_THEORY":"SGP4","REF_FRAME":"TEME","ECCENTRICITY":"0.00017300","FILE":"3847859","MEAN_ANOMALY":"233.4921","BSTAR":"0.00181620000000","EPHEMERIS_TYPE":"0","CENTER_NAME":"EARTH","RCS_SIZE":"LARGE","APOAPSIS":"540.942","ARG_OF_PERICENTER":"126.6231","MEAN_MOTION_DDOT":"0.0000000000000","PERIAPSIS":"538.549","CLASSIFICATION_TYPE":"U"},{"BSTAR":"0.00111020000000","EPHEMERIS_TYPE":"0","ECCENTRICITY":"0.00012220","FILE":"3847856","MEAN_ANOMALY":"293.3180","APOAPSIS":"540.560","ARG_OF_PERICENTER":"66.7941","MEAN_MOTION_DDOT":"0.0000000000000","PERIAPSIS":"538.869","CLASSIFICATION_TYPE":"U","CENTER_NAME":"EARTH","RCS_SIZE":"LARGE","SEMIMAJOR_AXIS":"6917.849","MEAN_MOTION":"15.08850199","ELEMENT_SET_NO":"999","TLE_LINE2":"2 52340  53.2158 120.7770 0001222  66.7941 293.3180 15.08850199 48918","DECAY_DATE":null,"REV_AT_EPOCH":"4891","OBJECT_NAME":"STARLINK-3818","TLE_LINE1":"1 52340U 22045K   23059.44020781  .00017430  00000-0  11102-2 0  9994","LAUNCH_DATE":"2022-04-29","MEAN_MOTION_DOT":"0.00017430","TIME_SYSTEM":"UTC","OBJECT_TYPE":"PAYLOAD","GP_ID":"227276019","PERIOD":"95.437","SITE":"AFETR","RA_OF_ASC_NODE":"120.7770","INCLINATION":"53.2158","MEAN_ELEMENT_THEORY":"SGP4","REF_FRAME":"TEME","EPOCH":"2023-02-28T10:33:53.954784","OBJECT_ID":"2022-045K","COUNTRY_CODE":"US","NORAD_CAT_ID":"52340"},{"RCS_SIZE":"LARGE","CENTER_NAME":"EARTH","ARG_OF_PERICENTER":"99.9501","MEAN_MOTION_DDOT":"0.0000000000000","APOAPSIS":"540.948","CLASSIFICATION_TYPE":"U","PERIAPSIS":"538.804","ECCENTRICITY":"0.00015490","MEAN_ANOMALY":"260.1666","FILE":"3847856","EPHEMERIS_TYPE":"0","BSTAR":"-0.00152900000000","EPOCH":"2023-02-28T21:04:33.309984","NORAD_CAT_ID":"52341","OBJECT_ID":"2022-045L","COUNTRY_CODE":"US","PERIOD":"95.440","SITE":"AFETR","GP_ID":"227276013","OBJECT_TYPE":"PAYLOAD","INCLINATION":"53.2155","MEAN_ELEMENT_THEORY":"SGP4","REF_FRAME":"TEME","RA_OF_ASC_NODE":"128.8118","TLE_LINE1":"1 52341U 22045L   23059.87816331 -.00024511  00000-0 -15290-2 0  9998","DECAY_DATE":null,"REV_AT_EPOCH":"4885","OBJECT_NAME":"STARLINK-3843","LAUNCH_DATE":"2022-04-29","TIME_SYSTEM":"UTC","MEAN_MOTION_DOT":"-0.00024511","MEAN_MOTION":"15.08797255","SEMIMAJOR_AXIS":"6918.011","TLE_LINE2":"2 52341  53.2155 128.8118 0001549  99.9501 260.1666 15.08797255 48850","ELEMENT_SET_NO":"999"}];
